{"type": "FeatureCollection", "features": [ {"type": "Feature", "properties": {"norad_id": 40115, "name": "WORLDVIEW-3 (WV-3)", "group": "resource", "lat": -57.1981369380971, "lon": 63.57680465909052, "alt_km": 619.122217941489, "timestamp": "2025-12-04T19:33:59.288477+00:00", "meta": {"OBJECT_NAME": "WORLDVIEW-3 (WV-3)", "OBJECT_ID": "2014-048A", "EPOCH": "2025-12-04T06:53:40.023456", "MEAN_MOTION": 14.85478578, "ECCENTRICITY": 0.00041589, "INCLINATION": 97.8628, "RA_OF_ASC_NODE": 50.674, "ARG_OF_PERICENTER": 214.7207, "MEAN_ANOMALY": 145.3737, "EPHEMERIS_TYPE": 0, "CLASSIFICATION_TYPE": "U", "NORAD_CAT_ID": 40115, "ELEMENT_SET_NO": 999, "REV_AT_EPOCH": 61298, "BSTAR": 0.00034799412, "MEAN_MOTION_DOT": 2.949e-05, "MEAN_MOTION_DDOT": 0}, "tle": {"line1": "1 40115U 14048A   25338.28726879  .00002949  00000+0  34799-3 0  9996", "line2": "2 40115  97.8628  50.6740 0004158 214.7207 145.3737 14.85478578612989"}}, "geometry": {"type": "Point", "coordinates": [63.57680465909052, -57.1981369380971]}}, {"type": "Feature", "properties": {"norad_id": 40118, "name": "GAOFEN-2", "group": "resource", "lat": -76.32735903334198, "lon": -177.55238875698635, "alt_km": 637.9667036751398, "timestamp": "2025-12-04T19:33:59.288486+00:00", "meta": {"OBJECT_NAME": "GAOFEN-2", "OBJECT_ID": "2014-049A", "EPOCH": "2025-12-04T07:02:51.111168", "MEAN_MOTION": 14.80585694, "ECCENTRICITY": 0.0008251, "INCLINATION": 98.0397, "RA_OF_ASC_NODE": 37.4471, "ARG_OF_PERICENTER": 137.3011, "MEAN_ANOMALY": 222.8843, "EPHEMERIS_TYPE": 0, "CLASSIFICATION_TYPE": "U", "NORAD_CAT_ID": 40118, "ELEMENT_SET_NO": 999, "REV_AT_EPOCH": 61039, "BSTAR": 0.0002086861, "MEAN_MOTION_DOT": 1.548e-05, "MEAN_MOTION_DDOT": 0}, "tle": {"line1": "1 40118U 14049A   25338.29364712  .00001548  00000+0  20869-3 0  9992", "line2": "2 40118  98.0397  37.4471 0008251 137.3011 222.8843 14.80585694610398"}}, "geometry": {"type": "Point", "coordinates": [-177.55238875698635, -76.32735903334198]}}, {"type": "Feature", "properties": {"norad_id": 40143, "name": "YAOGAN-21", "group": "resource", "lat": 75.789347884372, "lon": -7.368053889296636, "alt_km": 481.18249762749474, "timestamp": "2025-12-04T19:33:59.288495+00:00", "meta": {"OBJECT_NAME": "YAOGAN-21", "OBJECT_ID": "2014-053A", "EPOCH": "2025-12-04T08:11:35.065248", "MEAN_MOTION": 15.23517342, "ECCENTRICITY": 0.00101969, "INCLINATION": 97.1771, "RA_OF_ASC_NODE": 22.0202, "ARG_OF_PERICENTER": 67.3444, "MEAN_ANOMALY": 292.8871, "EPHEMERIS_TYPE": 0, "CLASSIFICATION_TYPE": "U", "NORAD_CAT_ID": 40143, "ELEMENT_SET_NO": 999, "REV_AT_EPOCH": 62526, "BSTAR": 0.00068764032, "MEAN_MOTION_DOT": 0.00016396, "MEAN_MOTION_DDOT": 0}, "tle": {"line1": "1 40143U 14053A   25338.34137807  .00016396  00000+0  68764-3 0  9997", "line2": "2 40143  97.1771  22.0202 0010196  67.3444 292.8871 15.23517342625260"}}, "geometry": {"type": "Point", "coordinates": [-7.368053889296636, 75.789347884372]}}, {"type": "Feature", "properties": {"norad_id": 40275, "name": "YAOGAN-22", "group": "resource", "lat": 74.46391632963366, "lon": 79.06090367917729, "alt_km": 1199.0845181415953, "timestamp": "2025-12-04T19:33:59.288504+00:00", "meta": {"OBJECT_NAME": "YAOGAN-22", "OBJECT_ID": "2014-063A", "EPOCH": "2025-12-04T06:23:27.203712", "MEAN_MOTION": 13.15522506, "ECCENTRICITY": 0.00058907, "INCLINATION": 100.7418, "RA_OF_ASC_NODE": 121.5663, "ARG_OF_PERICENTER": 268.7473, "MEAN_ANOMALY": 91.2963, "EPHEMERIS_TYPE": 0, "CLASSIFICATION_TYPE": "U", "NORAD_CAT_ID": 40275, "ELEMENT_SET_NO": 999, "REV_AT_EPOCH": 53418, "BSTAR": 0.00015699263, "MEAN_MOTION_DOT": 1.2e-07, "MEAN_MOTION_DDOT": 0}, "tle": {"line1": "1 40275U 14063A   25338.26628708  .00000012  00000+0  15699-3 0  9997", "line2": "2 40275 100.7418 121.5663 0005890 268.7473  91.2963 13.15522506534185"}}, "geometry": {"type": "Point", "coordinates": [79.06090367917729, 74.46391632963366]}}, {"type": "Feature", "properties": {"norad_id": 40298, "name": "ASNARO", "group": "resource", "lat": -65.18346999151986, "lon": -141.29011186870733, "alt_km": 516.0474012486729, "timestamp": "2025-12-04T19:33:59.288513+00:00", "meta": {"OBJECT_NAME": "ASNARO", "OBJECT_ID": "2014-070A", "EPOCH": "2025-12-04T07:25:16.146624", "MEAN_MOTION": 15.19219393, "ECCENTRICITY": 0.000515, "INCLINATION": 97.3668, "RA_OF_ASC_NODE": 54.4639, "ARG_OF_PERICENTER": 146.7233, "MEAN_ANOMALY": 213.4327, "EPHEMERIS_TYPE": 0, "CLASSIFICATION_TYPE": "U", "NORAD_CAT_ID": 40298, "ELEMENT_SET_NO": 999, "REV_AT_EPOCH": 61441, "BSTAR": 0.0014031854, "MEAN_MOTION_DOT": 0.00029585, "MEAN_MOTION_DDOT": 0}, "tle": {"line1": "1 40298U 14070A   25338.30921466  .00029585  00000+0  14032-2 0  9997", "line2": "2 40298  97.3668  54.4639 0005150 146.7233 213.4327 15.19219393614413"}}, "geometry": {"type": "Point", "coordinates": [-141.29011186870733, -65.18346999151986]}}, {"type": "Feature", "properties": {"norad_id": 40310, "name": "YAOGAN-24", "group": "resource", "lat": 8.488982685967821, "lon": 108.64524876594967, "alt_km": 652.3468396569551, "timestamp": "2025-12-04T19:33:59.288522+00:00", "meta": {"OBJECT_NAME": "YAOGAN-24", "OBJECT_ID": "2014-072A", "EPOCH": "2025-12-04T08:08:23.220960", "MEAN_MOTION": 14.76149431, "ECCENTRICITY": 0.00143063, "INCLINATION": 98.1218, "RA_OF_ASC_NODE": 109.3881, "ARG_OF_PERICENTER": 164.0337, "MEAN_ANOMALY": 196.1326, "EPHEMERIS_TYPE": 0, "CLASSIFICATION_TYPE": "U", "NORAD_CAT_ID": 40310, "ELEMENT_SET_NO": 999, "REV_AT_EPOCH": 59497, "BSTAR": 0.00027931893, "MEAN_MOTION_DOT": 1.88e-05, "MEAN_MOTION_DDOT": 0}, "tle": {"line1": "1 40310U 14072A   25338.33915765  .00001880  00000+0  27932-3 0  9994", "line2": "2 40310  98.1218 109.3881 0014306 164.0337 196.1326 14.76149431594979"}}, "geometry": {"type": "Point", "coordinates": [108.64524876594967, 8.488982685967821]}}, {"type": "Feature", "properties": {"norad_id": 40336, "name": "CBERS 4", "group": "resource", "lat": -7.2244061129619945, "lon": -143.96144426725277, "alt_km": 776.7572422298354, "timestamp": "2025-12-04T19:33:59.288531+00:00", "meta": {"OBJECT_NAME": "CBERS 4", "OBJECT_ID": "2014-079A", "EPOCH": "2025-12-04T06:59:14.833824", "MEAN_MOTION": 14.35512749, "ECCENTRICITY": 0.00014432, "INCLINATION": 98.3322, "RA_OF_ASC_NODE": 36.5968, "ARG_OF_PERICENTER": 124.2287, "MEAN_ANOMALY": 235.9036, "EPHEMERIS_TYPE": 0, "CLASSIFICATION_TYPE": "U", "NORAD_CAT_ID": 40336, "ELEMENT_SET_NO": 999, "REV_AT_EPOCH": 57599, "BSTAR": 0.00013360204, "MEAN_MOTION_DOT": 3.42e-06, "MEAN_MOTION_DDOT": 0}, "tle": {"line1": "1 40336U 14079A   25338.29114391  .00000342  00000+0  13360-3 0  9992", "line2": "2 40336  98.3322  36.5968 0001443 124.2287 235.9036 14.35512749575994"}}, "geometry": {"type": "Point", "coordinates": [-143.96144426725277, -7.2244061129619945]}}, {"type": "Feature", "properties": {"norad_id": 40362, "name": "YAOGAN-26", "group": "resource", "lat": 70.25798933813141, "lon": -40.43915485477601, "alt_km": 437.9959592694322, "timestamp": "2025-12-04T19:33:59.288540+00:00", "meta": {"OBJECT_NAME": "YAOGAN-26", "OBJECT_ID": "2014-088A", "EPOCH": "2025-12-04T06:46:20.378784", "MEAN_MOTION": 15.38844678, "ECCENTRICITY": 0.00072594, "INCLINATION": 97.0637, "RA_OF_ASC_NODE": 339.2608, "ARG_OF_PERICENTER": 52.855, "MEAN_ANOMALY": 307.3358, "EPHEMERIS_TYPE": 0, "CLASSIFICATION_TYPE": "U", "NORAD_CAT_ID": 40362, "ELEMENT_SET_NO": 999, "REV_AT_EPOCH": 60764, "BSTAR": 0.00099329179, "MEAN_MOTION_DOT": 0.00038255, "MEAN_MOTION_DDOT": 0}, "tle": {"line1": "1 40362U 14088A   25338.28218031  .00038255  00000+0  99329-3 0  9999", "line2": "2 40362  97.0637 339.2608 0007259  52.8550 307.3358 15.38844678607644"}}, "geometry": {"type": "Point", "coordinates": [-40.43915485477601, 70.25798933813141]}}, {"type": "Feature", "properties": {"norad_id": 40376, "name": "SMAP", "group": "resource", "lat": -42.079323729954595, "lon": -8.931437280708407, "alt_km": 689.5753505374096, "timestamp": "2025-12-04T19:33:59.288549+00:00", "meta": {"OBJECT_NAME": "SMAP", "OBJECT_ID": "2015-003A", "EPOCH": "2025-12-04T06:37:56.036928", "MEAN_MOTION": 14.63328551, "ECCENTRICITY": 0.00012084, "INCLINATION": 98.1291, "RA_OF_ASC_NODE": 343.1223, "ARG_OF_PERICENTER": 87.057, "MEAN_ANOMALY": 273.0771, "EPHEMERIS_TYPE": 0, "CLASSIFICATION_TYPE": "U", "NORAD_CAT_ID": 40376, "ELEMENT_SET_NO": 999, "REV_AT_EPOCH": 57911, "BSTAR": 0.00022366238, "MEAN_MOTION_DOT": 1.108e-05, "MEAN_MOTION_DDOT": 0}, "tle": {"line1": "1 40376U 15003A   25338.27634302  .00001108  00000+0  22366-3 0  9998", "line2": "2 40376  98.1291 343.1223 0001208  87.0570 273.0771 14.63328551579116"}}, "geometry": {"type": "Point", "coordinates": [-8.931437280708407, -42.079323729954595]}}, {"type": "Feature", "properties": {"norad_id": 40536, "name": "KOMPSAT-3A", "group": "resource", "lat": -58.67827021568109, "lon": 119.9193259315234, "alt_km": 443.1866761119445, "timestamp": "2025-12-04T19:33:59.288558+00:00", "meta": {"OBJECT_NAME": "KOMPSAT-3A", "OBJECT_ID": "2015-014A", "EPOCH": "2025-12-04T07:38:27.306240", "MEAN_MOTION": 15.4348426, "ECCENTRICITY": 0.00038713, "INCLINATION": 97.6774, "RA_OF_ASC_NODE": 312.2032, "ARG_OF_PERICENTER": 144.5685, "MEAN_ANOMALY": 215.582, "EPHEMERIS_TYPE": 0, "CLASSIFICATION_TYPE": "U", "NORAD_CAT_ID": 40536, "ELEMENT_SET_NO": 999, "REV_AT_EPOCH": 59165, "BSTAR": 0.00079468655, "MEAN_MOTION_DOT": 0.0003563, "MEAN_MOTION_DDOT": 0}, "tle": {"line1": "1 40536U 15014A   25338.31837160  .00035630  00000+0  79469-3 0  9993", "line2": "2 40536  97.6774 312.2032 0003871 144.5685 215.5820 15.43484260591651"}}, "geometry": {"type": "Point", "coordinates": [119.9193259315234, -58.67827021568109]}}]}